{"type": "FeatureCollection", "features": [ {"type": "Feature", "properties": {"norad_id": 30160, "name": "FENGYUN 1C DEB", "group": "fengyun-1c-debris", "lat": -18.588305890362605, "lon": -52.18322683287628, "alt_km": 1222.7053439315441, "timestamp": "2025-12-23T11:34:48.438218+00:00", "meta": {"OBJECT_NAME": "FENGYUN 1C DEB", "OBJECT_ID": "1999-025TR", "EPOCH": "2025-12-22T19:51:20.693376", "MEAN_MOTION": 13.4290587, "ECCENTRICITY": 0.03433491, "INCLINATION": 98.8874, "RA_OF_ASC_NODE": 304.2216, "ARG_OF_PERICENTER": 102.3635, "MEAN_ANOMALY": 316.5913, "EPHEMERIS_TYPE": 0, "CLASSIFICATION_TYPE": "U", "NORAD_CAT_ID": 30160, "ELEMENT_SET_NO": 999, "REV_AT_EPOCH": 92549, "BSTAR": 0.0010403742, "MEAN_MOTION_DOT": 8.07e-06, "MEAN_MOTION_DDOT": 0}, "tle": {"line1": "1 30160U 99025TR  25356.82732284  .00000807  00000+0  10404-2 0  9997", "line2": "2 30160  98.8874 304.2216 0343349 102.3635 316.5913 13.42905870925496"}}, "geometry": {"type": "Point", "coordinates": [-52.18322683287628, -18.588305890362605]}}, {"type": "Feature", "properties": {"norad_id": 30161, "name": "FENGYUN 1C DEB", "group": "fengyun-1c-debris", "lat": 17.507147674371787, "lon": 168.8285725191886, "alt_km": 982.292840476146, "timestamp": "2025-12-23T11:34:48.438227+00:00", "meta": {"OBJECT_NAME": "FENGYUN 1C DEB", "OBJECT_ID": "1999-025TS", "EPOCH": "2025-12-22T22:35:16.634400", "MEAN_MOTION": 13.49747173, "ECCENTRICITY": 0.03277369, "INCLINATION": 100.5063, "RA_OF_ASC_NODE": 344.9018, "ARG_OF_PERICENTER": 233.2303, "MEAN_ANOMALY": 183.2286, "EPHEMERIS_TYPE": 0, "CLASSIFICATION_TYPE": "U", "NORAD_CAT_ID": 30161, "ELEMENT_SET_NO": 999, "REV_AT_EPOCH": 92697, "BSTAR": 0.0013715992, "MEAN_MOTION_DOT": 1.161e-05, "MEAN_MOTION_DDOT": 0}, "tle": {"line1": "1 30161U 99025TS  25356.94116475  .00001161  00000+0  13716-2 0  9992", "line2": "2 30161 100.5063 344.9018 0327736 233.2303 183.2286 13.49747173926970"}}, "geometry": {"type": "Point", "coordinates": [168.8285725191886, 17.507147674371787]}}, {"type": "Feature", "properties": {"norad_id": 30162, "name": "FENGYUN 1C DEB", "group": "fengyun-1c-debris", "lat": 68.56472439751657, "lon": -101.66733287106845, "alt_km": 1246.3482308526536, "timestamp": "2025-12-23T11:34:48.438236+00:00", "meta": {"OBJECT_NAME": "FENGYUN 1C DEB", "OBJECT_ID": "1999-025TT", "EPOCH": "2025-12-22T17:53:14.218944", "MEAN_MOTION": 13.53441552, "ECCENTRICITY": 0.03140421, "INCLINATION": 99.4881, "RA_OF_ASC_NODE": 52.4146, "ARG_OF_PERICENTER": 324.2252, "MEAN_ANOMALY": 152.9639, "EPHEMERIS_TYPE": 0, "CLASSIFICATION_TYPE": "U", "NORAD_CAT_ID": 30162, "ELEMENT_SET_NO": 999, "REV_AT_EPOCH": 92796, "BSTAR": 0.0023458312, "MEAN_MOTION_DOT": 2.11e-05, "MEAN_MOTION_DDOT": 0}, "tle": {"line1": "1 30162U 99025TT  25356.74530346  .00002110  00000+0  23458-2 0  9997", "line2": "2 30162  99.4881  52.4146 0314042 324.2252 152.9639 13.53441552927960"}}, "geometry": {"type": "Point", "coordinates": [-101.66733287106845, 68.56472439751657]}}, {"type": "Feature", "properties": {"norad_id": 30163, "name": "FENGYUN 1C DEB", "group": "fengyun-1c-debris", "lat": -78.22301519225162, "lon": 158.32962747914522, "alt_km": 1027.0576179379996, "timestamp": "2025-12-23T11:34:48.438245+00:00", "meta": {"OBJECT_NAME": "FENGYUN 1C DEB", "OBJECT_ID": "1999-025TU", "EPOCH": "2025-12-22T05:49:37.426656", "MEAN_MOTION": 13.38809395, "ECCENTRICITY": 0.03739995, "INCLINATION": 98.7012, "RA_OF_ASC_NODE": 110.0008, "ARG_OF_PERICENTER": 208.6586, "MEAN_ANOMALY": 213.3323, "EPHEMERIS_TYPE": 0, "CLASSIFICATION_TYPE": "U", "NORAD_CAT_ID": 30163, "ELEMENT_SET_NO": 999, "REV_AT_EPOCH": 92072, "BSTAR": 0.0017862566, "MEAN_MOTION_DOT": 1.397e-05, "MEAN_MOTION_DDOT": 0}, "tle": {"line1": "1 30163U 99025TU  25356.24279429  .00001397  00000+0  17863-2 0  9994", "line2": "2 30163  98.7012 110.0008 0373999 208.6586 213.3323 13.38809395920723"}}, "geometry": {"type": "Point", "coordinates": [158.32962747914522, -78.22301519225162]}}, {"type": "Feature", "properties": {"norad_id": 30167, "name": "FENGYUN 1C DEB", "group": "fengyun-1c-debris", "lat": 37.16133215259894, "lon": -89.809054875083, "alt_km": 630.8702107109348, "timestamp": "2025-12-23T11:34:48.438254+00:00", "meta": {"OBJECT_NAME": "FENGYUN 1C DEB", "OBJECT_ID": "1999-025TY", "EPOCH": "2025-12-22T17:23:40.285248", "MEAN_MOTION": 14.48576915, "ECCENTRICITY": 0.0144295, "INCLINATION": 98.9675, "RA_OF_ASC_NODE": 82.5124, "ARG_OF_PERICENTER": 124.724, "MEAN_ANOMALY": 27.7133, "EPHEMERIS_TYPE": 0, "CLASSIFICATION_TYPE": "U", "NORAD_CAT_ID": 30167, "ELEMENT_SET_NO": 999, "REV_AT_EPOCH": 99503, "BSTAR": 0.0003662383, "MEAN_MOTION_DOT": 1.515e-05, "MEAN_MOTION_DDOT": 0}, "tle": {"line1": "1 30167U 99025TY  25356.72477182  .00001515  00000+0  36624-3 0  9996", "line2": "2 30167  98.9675  82.5124 0144295 124.7240  27.7133 14.48576915995039"}}, "geometry": {"type": "Point", "coordinates": [-89.809054875083, 37.16133215259894]}}, {"type": "Feature", "properties": {"norad_id": 30168, "name": "FENGYUN 1C DEB", "group": "fengyun-1c-debris", "lat": 18.394378564359158, "lon": 66.11156160462659, "alt_km": 730.1544461410613, "timestamp": "2025-12-23T11:34:48.438263+00:00", "meta": {"OBJECT_NAME": "FENGYUN 1C DEB", "OBJECT_ID": "1999-025TZ", "EPOCH": "2025-12-22T17:18:51.444864", "MEAN_MOTION": 14.53015884, "ECCENTRICITY": 0.01003539, "INCLINATION": 97.3891, "RA_OF_ASC_NODE": 67.9137, "ARG_OF_PERICENTER": 123.0017, "MEAN_ANOMALY": 238.0875, "EPHEMERIS_TYPE": 0, "CLASSIFICATION_TYPE": "U", "NORAD_CAT_ID": 30168, "ELEMENT_SET_NO": 999, "REV_AT_EPOCH": 98456, "BSTAR": 0.0018090883, "MEAN_MOTION_DOT": 7.947e-05, "MEAN_MOTION_DDOT": 0}, "tle": {"line1": "1 30168U 99025TZ  25356.72142876  .00007947  00000+0  18091-2 0  9998", "line2": "2 30168  97.3891  67.9137 0100353 123.0017 238.0875 14.53015884984560"}}, "geometry": {"type": "Point", "coordinates": [66.11156160462659, 18.394378564359158]}}, {"type": "Feature", "properties": {"norad_id": 30169, "name": "FENGYUN 1C DEB", "group": "fengyun-1c-debris", "lat": 42.44509215949325, "lon": 59.27943997262752, "alt_km": 825.5293852913828, "timestamp": "2025-12-23T11:34:48.438272+00:00", "meta": {"OBJECT_NAME": "FENGYUN 1C DEB", "OBJECT_ID": "1999-025UA", "EPOCH": "2025-12-22T23:01:21.056736", "MEAN_MOTION": 14.58386465, "ECCENTRICITY": 0.02129314, "INCLINATION": 98.335, "RA_OF_ASC_NODE": 66.4599, "ARG_OF_PERICENTER": 195.4553, "MEAN_ANOMALY": 343.3709, "EPHEMERIS_TYPE": 0, "CLASSIFICATION_TYPE": "U", "NORAD_CAT_ID": 30169, "ELEMENT_SET_NO": 999, "REV_AT_EPOCH": 97872, "BSTAR": 0.002774141, "MEAN_MOTION_DOT": 0.00017589, "MEAN_MOTION_DDOT": 0}, "tle": {"line1": "1 30169U 99025UA  25356.95927149  .00017589  00000+0  27741-2 0  9993", "line2": "2 30169  98.3350  66.4599 0212931 195.4553 343.3709 14.58386465978720"}}, "geometry": {"type": "Point", "coordinates": [59.27943997262752, 42.44509215949325]}}, {"type": "Feature", "properties": {"norad_id": 30170, "name": "FENGYUN 1C DEB", "group": "fengyun-1c-debris", "lat": -23.474689036342856, "lon": -11.950381874971407, "alt_km": 899.4990439758749, "timestamp": "2025-12-23T11:34:48.438281+00:00", "meta": {"OBJECT_NAME": "FENGYUN 1C DEB", "OBJECT_ID": "1999-025UB", "EPOCH": "2025-12-22T10:35:18.313152", "MEAN_MOTION": 14.00318842, "ECCENTRICITY": 0.00773029, "INCLINATION": 98.8494, "RA_OF_ASC_NODE": 343.1624, "ARG_OF_PERICENTER": 247.3284, "MEAN_ANOMALY": 241.5592, "EPHEMERIS_TYPE": 0, "CLASSIFICATION_TYPE": "U", "NORAD_CAT_ID": 30170, "ELEMENT_SET_NO": 999, "REV_AT_EPOCH": 96551, "BSTAR": 0.00030254741, "MEAN_MOTION_DOT": 4.16e-06, "MEAN_MOTION_DDOT": 0}, "tle": {"line1": "1 30170U 99025UB  25356.44118418  .00000416  00000+0  30255-3 0  9996", "line2": "2 30170  98.8494 343.1624 0077302 247.3284 241.5592 14.00318842965512"}}, "geometry": {"type": "Point", "coordinates": [-11.950381874971407, -23.474689036342856]}}, {"type": "Feature", "properties": {"norad_id": 30171, "name": "FENGYUN 1C DEB", "group": "fengyun-1c-debris", "lat": 62.3103256636259, "lon": -162.0821365060844, "alt_km": 1031.9095260887561, "timestamp": "2025-12-23T11:34:48.438290+00:00", "meta": {"OBJECT_NAME": "FENGYUN 1C DEB", "OBJECT_ID": "1999-025UC", "EPOCH": "2025-12-22T12:55:08.784768", "MEAN_MOTION": 13.96867339, "ECCENTRICITY": 0.01842478, "INCLINATION": 98.3978, "RA_OF_ASC_NODE": 213.4039, "ARG_OF_PERICENTER": 239.8454, "MEAN_ANOMALY": 118.4343, "EPHEMERIS_TYPE": 0, "CLASSIFICATION_TYPE": "U", "NORAD_CAT_ID": 30171, "ELEMENT_SET_NO": 999, "REV_AT_EPOCH": 96407, "BSTAR": 0.00036460051, "MEAN_MOTION_DOT": 5.46e-06, "MEAN_MOTION_DDOT": 0}, "tle": {"line1": "1 30171U 99025UC  25356.53829612  .00000546  00000+0  36460-3 0  9990", "line2": "2 30171  98.3978 213.4039 0184247 239.8454 118.4343 13.96867339964076"}}, "geometry": {"type": "Point", "coordinates": [-162.0821365060844, 62.3103256636259]}}, {"type": "Feature", "properties": {"norad_id": 30172, "name": "FENGYUN 1C DEB", "group": "fengyun-1c-debris", "lat": -41.125439064475124, "lon": -14.952675533540756, "alt_km": 898.7472816423897, "timestamp": "2025-12-23T11:34:48.438299+00:00", "meta": {"OBJECT_NAME": "FENGYUN 1C DEB", "OBJECT_ID": "1999-025UD", "EPOCH": "2025-12-22T12:34:01.149888", "MEAN_MOTION": 14.12508518, "ECCENTRICITY": 0.006888, "INCLINATION": 99.236, "RA_OF_ASC_NODE": 335.8917, "ARG_OF_PERICENTER": 174.3967, "MEAN_ANOMALY": 310.213, "EPHEMERIS_TYPE": 0, "CLASSIFICATION_TYPE": "U", "NORAD_CAT_ID": 30172, "ELEMENT_SET_NO": 999, "REV_AT_EPOCH": 96655, "BSTAR": 0.0011833481, "MEAN_MOTION_DOT": 2.19e-05, "MEAN_MOTION_DDOT": 0}, "tle": {"line1": "1 30172U 99025UD  25356.52362442  .00002190  00000+0  11833-2 0  9996", "line2": "2 30172  99.2360 335.8917 0068880 174.3967 310.2130 14.12508518966553"}}, "geometry": {"type": "Point", "coordinates": [-14.952675533540756, -41.125439064475124]}}]}